0 ASTRID 2
1 25568U 98072B   13282.04104986  .00000151  00000-0  14867-3 0  4193
2 25568 082.9475 259.6485 0024914 006.7417 058.1614 13.72228501742624
0 ASTRID 2
1 25568U 98072B   13283.72858922  .00000142  00000-0  13880-3 0  4201
2 25568 082.9476 258.4050 0024813 002.0660 114.6339 13.72229194742853
0 ASTRID 2
1 25568U 98072B   13286.05322234  .00000123  00000-0  11787-3 0  4227
2 25568 082.9480 256.6920 0024664 355.5078 078.4825 13.72229985743178
0 ASTRID 2
1 25568U 98072B   13287.44862223  .00000125  00000-0  12084-3 0  4232
2 25568 082.9483 255.6637 0024570 351.5331 131.8961 13.72230298743364
0 ASTRID 2
1 25568U 98072B   13288.46884416  .00000158  00000-0  15651-3 0  4243
2 25568 082.9486 254.9118 0024503 348.6678 131.8544 13.72230636743509
0 ASTRID 2
1 25568U 98072B   13289.84265604  .00000152  00000-0  15059-3 0  4255
2 25568 082.9489 253.8995 0024427 344.7727 078.6071 13.72230931743691
0 ASTRID 2
1 25568U 98072B   13291.01020803  .00000163  00000-0  16192-3 0  4269
2 25568 082.9491 253.0393 0024347 341.4283 086.4535 13.72231201743851
0 ASTRID 2
1 25568U 98072B   13292.40439377  .00000188  00000-0  18930-3 0  4273
2 25568 082.9493 252.0122 0024265 337.4343 133.8995 13.72231492744044
0 ASTRID 2
1 25568U 98072B   13293.43267928  .00000203  00000-0  20661-3 0  4281
2 25568 082.9494 251.2547 0024205 334.4600 173.7836 13.72231899744187
0 ASTRID 2
1 25568U 98072B   13294.44810167  .00000203  00000-0  20626-3 0  4294
2 25568 082.9494 250.5068 0024152 331.5784 150.0673 13.72232360744326
0 ASTRID 2
1 25568U 98072B   13295.82186941  .00000203  00000-0  20651-3 0  4303
2 25568 082.9495 249.4949 0024083 327.6308 096.6624 13.72232861744511
